{
"type": "FeatureCollection",
"name": "stores",
"crs": { "type": "name", "properties": { "name": "urn:ogc:def:crs:EPSG::32616" } },
"features": [
{ "type": "Feature", "properties": { "store_id": 0, "name": "Starbucks" }, "geometry": { "type": "Point", "coordinates": [ 443968.309088881127536, 4645738.041855019517243 ] } },
{ "type": "Feature", "properties": { "store_id": 1, "name": "Starbucks" }, "geometry": { "type": "Point", "coordinates": [ 447347.019795652187895, 4640123.00941161904484 ] } },
{ "type": "Feature", "properties": { "store_id": 2, "name": "Starbucks" }, "geometry": { "type": "Point", "coordinates": [ 443732.274026401981246, 4644969.774757298640907 ] } },
{ "type": "Feature", "properties": { "store_id": 3, "name": "Starbucks" }, "geometry": { "type": "Point", "coordinates": [ 445407.85570420010481, 4642081.244750981219113 ] } },
{ "type": "Feature", "properties": { "store_id": 4, "name": "Starbucks" }, "geometry": { "type": "Point", "coordinates": [ 445246.665344517328776, 4641671.755504267290235 ] } },
{ "type": "Feature", "properties": { "store_id": 5, "name": "Starbucks" }, "geometry": { "type": "Point", "coordinates": [ 424553.519903447653633, 4647608.642586945556104 ] } },
{ "type": "Feature", "properties": { "store_id": 6, "name": "Starbucks" }, "geometry": { "type": "Point", "coordinates": [ 424604.242691985680722, 4647822.049025374464691 ] } },
{ "type": "Feature", "properties": { "store_id": 7, "name": "Starbucks" }, "geometry": { "type": "Point", "coordinates": [ 443167.847703234292567, 4646094.578039953485131 ] } },
{ "type": "Feature", "properties": { "store_id": 8, "name": "Starbucks" }, "geometry": { "type": "Point", "coordinates": [ 447951.499146475223824, 4631184.033449958078563 ] } },
{ "type": "Feature", "properties": { "store_id": 9, "name": "Starbucks" }, "geometry": { "type": "Point", "coordinates": [ 443588.542636755562853, 4640848.556833932176232 ] } },
{ "type": "Feature", "properties": { "store_id": 10, "name": "Starbucks" }, "geometry": { "type": "Point", "coordinates": [ 447872.243915995932184, 4638046.009647412225604 ] } },
{ "type": "Feature", "properties": { "store_id": 11, "name": "Starbucks" }, "geometry": { "type": "Point", "coordinates": [ 438847.042652198346332, 4644860.457269785925746 ] } },
{ "type": "Feature", "properties": { "store_id": 12, "name": "Starbucks" }, "geometry": { "type": "Point", "coordinates": [ 447364.106571946409531, 4637590.947372323833406 ] } },
{ "type": "Feature", "properties": { "store_id": 13, "name": "Starbucks" }, "geometry": { "type": "Point", "coordinates": [ 441265.004637629899662, 4646083.32705657184124 ] } },
{ "type": "Feature", "properties": { "store_id": 14, "name": "Starbucks" }, "geometry": { "type": "Point", "coordinates": [ 446053.120378026273102, 4643301.553973966278136 ] } },
{ "type": "Feature", "properties": { "store_id": 15, "name": "Starbucks" }, "geometry": { "type": "Point", "coordinates": [ 424983.764257005648687, 4647545.540067426860332 ] } },
{ "type": "Feature", "properties": { "store_id": 16, "name": "Starbucks" }, "geometry": { "type": "Point", "coordinates": [ 447186.938455037714448, 4636542.79341490752995 ] } },
{ "type": "Feature", "properties": { "store_id": 17, "name": "Starbucks" }, "geometry": { "type": "Point", "coordinates": [ 425537.405074802634772, 4647652.605909818783402 ] } },
{ "type": "Feature", "properties": { "store_id": 18, "name": "Starbucks" }, "geometry": { "type": "Point", "coordinates": [ 425235.588695518497843, 4647485.029646852053702 ] } },
{ "type": "Feature", "properties": { "store_id": 19, "name": "Starbucks" }, "geometry": { "type": "Point", "coordinates": [ 425406.765386901446618, 4647346.857582125812769 ] } },
{ "type": "Feature", "properties": { "store_id": 20, "name": "Starbucks" }, "geometry": { "type": "Point", "coordinates": [ 425433.459711937175598, 4647419.875955753028393 ] } },
{ "type": "Feature", "properties": { "store_id": 21, "name": "Starbucks" }, "geometry": { "type": "Point", "coordinates": [ 448167.777426390501205, 4636909.746365682221949 ] } },
{ "type": "Feature", "properties": { "store_id": 22, "name": "Starbucks" }, "geometry": { "type": "Point", "coordinates": [ 442181.798965572554152, 4642012.870483049191535 ] } },
{ "type": "Feature", "properties": { "store_id": 23, "name": "Starbucks" }, "geometry": { "type": "Point", "coordinates": [ 447731.453412074421067, 4639286.665722620673478 ] } },
{ "type": "Feature", "properties": { "store_id": 24, "name": "Starbucks" }, "geometry": { "type": "Point", "coordinates": [ 447139.286992573004682, 4637735.735480069182813 ] } },
{ "type": "Feature", "properties": { "store_id": 25, "name": "Starbucks" }, "geometry": { "type": "Point", "coordinates": [ 446996.260998200334143, 4639414.053076163865626 ] } },
{ "type": "Feature", "properties": { "store_id": 26, "name": "Starbucks" }, "geometry": { "type": "Point", "coordinates": [ 447385.646812016377226, 4636897.350966417230666 ] } },
{ "type": "Feature", "properties": { "store_id": 27, "name": "Starbucks" }, "geometry": { "type": "Point", "coordinates": [ 447121.687740512017626, 4637161.267570611089468 ] } },
{ "type": "Feature", "properties": { "store_id": 28, "name": "Starbucks" }, "geometry": { "type": "Point", "coordinates": [ 445793.032798046362586, 4640050.484588580206037 ] } },
{ "type": "Feature", "properties": { "store_id": 29, "name": "Starbucks" }, "geometry": { "type": "Point", "coordinates": [ 446646.03993307746714, 4637308.404715335927904 ] } },
{ "type": "Feature", "properties": { "store_id": 30, "name": "Starbucks" }, "geometry": { "type": "Point", "coordinates": [ 447780.147532343748026, 4638223.461145375855267 ] } },
{ "type": "Feature", "properties": { "store_id": 31, "name": "Starbucks" }, "geometry": { "type": "Point", "coordinates": [ 451183.661425279977266, 4627717.130005011335015 ] } },
{ "type": "Feature", "properties": { "store_id": 32, "name": "Starbucks" }, "geometry": { "type": "Point", "coordinates": [ 447628.473810973169748, 4637773.757282394915819 ] } },
{ "type": "Feature", "properties": { "store_id": 33, "name": "Starbucks" }, "geometry": { "type": "Point", "coordinates": [ 446973.051688355801161, 4636892.816956717520952 ] } },
{ "type": "Feature", "properties": { "store_id": 34, "name": "Starbucks" }, "geometry": { "type": "Point", "coordinates": [ 444616.003790611866862, 4647564.840823948383331 ] } },
{ "type": "Feature", "properties": { "store_id": 35, "name": "Starbucks" }, "geometry": { "type": "Point", "coordinates": [ 448352.89550742530264, 4638194.19960640091449 ] } },
{ "type": "Feature", "properties": { "store_id": 36, "name": "Starbucks" }, "geometry": { "type": "Point", "coordinates": [ 447902.433344233722892, 4638752.006198264658451 ] } },
{ "type": "Feature", "properties": { "store_id": 37, "name": "Starbucks" }, "geometry": { "type": "Point", "coordinates": [ 448265.806010798085481, 4638741.083281495608389 ] } },
{ "type": "Feature", "properties": { "store_id": 38, "name": "Starbucks" }, "geometry": { "type": "Point", "coordinates": [ 448429.981864326517098, 4637334.154324426315725 ] } },
{ "type": "Feature", "properties": { "store_id": 39, "name": "Starbucks" }, "geometry": { "type": "Point", "coordinates": [ 448768.311820227536373, 4638114.007033471949399 ] } },
{ "type": "Feature", "properties": { "store_id": 40, "name": "Starbucks" }, "geometry": { "type": "Point", "coordinates": [ 444420.964030405448284, 4639239.516092454083264 ] } },
{ "type": "Feature", "properties": { "store_id": 41, "name": "Starbucks" }, "geometry": { "type": "Point", "coordinates": [ 445909.14414777624188, 4637166.501110134646297 ] } },
{ "type": "Feature", "properties": { "store_id": 42, "name": "Starbucks" }, "geometry": { "type": "Point", "coordinates": [ 446199.262997453974094, 4641312.825867485255003 ] } },
{ "type": "Feature", "properties": { "store_id": 43, "name": "Starbucks" }, "geometry": { "type": "Point", "coordinates": [ 448787.869920124008786, 4637818.251452229917049 ] } },
{ "type": "Feature", "properties": { "store_id": 44, "name": "Starbucks" }, "geometry": { "type": "Point", "coordinates": [ 424717.354018565150909, 4647363.264626149088144 ] } },
{ "type": "Feature", "properties": { "store_id": 45, "name": "Starbucks" }, "geometry": { "type": "Point", "coordinates": [ 448074.312446156924125, 4636430.386546459048986 ] } },
{ "type": "Feature", "properties": { "store_id": 46, "name": "Starbucks" }, "geometry": { "type": "Point", "coordinates": [ 447961.602042004931718, 4636681.611269088461995 ] } },
{ "type": "Feature", "properties": { "store_id": 47, "name": "Starbucks" }, "geometry": { "type": "Point", "coordinates": [ 446762.219860556884669, 4642051.752936297096312 ] } },
{ "type": "Feature", "properties": { "store_id": 48, "name": "Starbucks" }, "geometry": { "type": "Point", "coordinates": [ 446975.237838691566139, 4635329.495506403036416 ] } },
{ "type": "Feature", "properties": { "store_id": 49, "name": "Starbucks" }, "geometry": { "type": "Point", "coordinates": [ 447321.009862688952126, 4633608.828291756100953 ] } },
{ "type": "Feature", "properties": { "store_id": 50, "name": "Starbucks" }, "geometry": { "type": "Point", "coordinates": [ 446228.694206456537358, 4637918.710726425051689 ] } },
{ "type": "Feature", "properties": { "store_id": 51, "name": "Starbucks" }, "geometry": { "type": "Point", "coordinates": [ 443676.048987908172421, 4643677.887147988192737 ] } },
{ "type": "Feature", "properties": { "store_id": 52, "name": "Starbucks" }, "geometry": { "type": "Point", "coordinates": [ 447989.630318534211256, 4637920.51592502836138 ] } },
{ "type": "Feature", "properties": { "store_id": 53, "name": "Starbucks" }, "geometry": { "type": "Point", "coordinates": [ 446772.651986070675775, 4636985.281957088038325 ] } },
{ "type": "Feature", "properties": { "store_id": 54, "name": "Starbucks" }, "geometry": { "type": "Point", "coordinates": [ 445769.791681125585455, 4642518.449737725779414 ] } },
{ "type": "Feature", "properties": { "store_id": 55, "name": "Starbucks" }, "geometry": { "type": "Point", "coordinates": [ 448270.418993489001878, 4633604.450828972272575 ] } },
{ "type": "Feature", "properties": { "store_id": 56, "name": "Starbucks" }, "geometry": { "type": "Point", "coordinates": [ 445881.36956981907133, 4636829.780121105723083 ] } },
{ "type": "Feature", "properties": { "store_id": 57, "name": "Starbucks" }, "geometry": { "type": "Point", "coordinates": [ 445258.882183094567154, 4650236.621344203129411 ] } },
{ "type": "Feature", "properties": { "store_id": 58, "name": "Starbucks" }, "geometry": { "type": "Point", "coordinates": [ 448092.385129775677342, 4638575.273996941745281 ] } },
{ "type": "Feature", "properties": { "store_id": 59, "name": "Starbucks" }, "geometry": { "type": "Point", "coordinates": [ 424859.659466638928279, 4647699.79162844736129 ] } },
{ "type": "Feature", "properties": { "store_id": 60, "name": "Starbucks" }, "geometry": { "type": "Point", "coordinates": [ 424867.901333991612773, 4647858.428333383053541 ] } },
{ "type": "Feature", "properties": { "store_id": 61, "name": "Starbucks" }, "geometry": { "type": "Point", "coordinates": [ 424908.342764889413957, 4647790.297729319892824 ] } },
{ "type": "Feature", "properties": { "store_id": 62, "name": "Starbucks" }, "geometry": { "type": "Point", "coordinates": [ 425328.141683507943526, 4647570.790253275074065 ] } },
{ "type": "Feature", "properties": { "store_id": 63, "name": "Starbucks" }, "geometry": { "type": "Point", "coordinates": [ 443828.777047316718381, 4635865.354905722662807 ] } },
{ "type": "Feature", "properties": { "store_id": 64, "name": "Starbucks" }, "geometry": { "type": "Point", "coordinates": [ 447631.900975301454309, 4635355.727418323978782 ] } },
{ "type": "Feature", "properties": { "store_id": 65, "name": "Starbucks" }, "geometry": { "type": "Point", "coordinates": [ 447809.285650528850965, 4636051.66890415828675 ] } },
{ "type": "Feature", "properties": { "store_id": 66, "name": "Starbucks" }, "geometry": { "type": "Point", "coordinates": [ 439207.525317450868897, 4648913.215692287310958 ] } },
{ "type": "Feature", "properties": { "store_id": 67, "name": "Starbucks" }, "geometry": { "type": "Point", "coordinates": [ 441110.246872370014898, 4649236.449893644079566 ] } },
{ "type": "Feature", "properties": { "store_id": 68, "name": "Starbucks" }, "geometry": { "type": "Point", "coordinates": [ 442834.602940070035402, 4649186.955295975320041 ] } },
{ "type": "Feature", "properties": { "store_id": 69, "name": "Starbucks" }, "geometry": { "type": "Point", "coordinates": [ 444951.961122522130609, 4643720.951236478984356 ] } },
{ "type": "Feature", "properties": { "store_id": 70, "name": "Starbucks" }, "geometry": { "type": "Point", "coordinates": [ 446521.250662926584482, 4642501.319572410546243 ] } },
{ "type": "Feature", "properties": { "store_id": 71, "name": "Starbucks" }, "geometry": { "type": "Point", "coordinates": [ 446171.573294817644637, 4644718.894122202880681 ] } },
{ "type": "Feature", "properties": { "store_id": 72, "name": "Starbucks" }, "geometry": { "type": "Point", "coordinates": [ 447252.84309797763126, 4638468.048215389251709 ] } },
{ "type": "Feature", "properties": { "store_id": 73, "name": "Starbucks" }, "geometry": { "type": "Point", "coordinates": [ 446979.042002273141406, 4636488.210861469618976 ] } },
{ "type": "Feature", "properties": { "store_id": 74, "name": "Starbucks" }, "geometry": { "type": "Point", "coordinates": [ 445334.009246255212929, 4637957.12576630525291 ] } },
{ "type": "Feature", "properties": { "store_id": 75, "name": "Starbucks" }, "geometry": { "type": "Point", "coordinates": [ 438159.063745198480319, 4640763.207467927597463 ] } },
{ "type": "Feature", "properties": { "store_id": 76, "name": "Starbucks" }, "geometry": { "type": "Point", "coordinates": [ 439594.939264875254594, 4646588.912197890691459 ] } },
{ "type": "Feature", "properties": { "store_id": 77, "name": "Starbucks" }, "geometry": { "type": "Point", "coordinates": [ 450364.578251428320073, 4626615.609136120416224 ] } },
{ "type": "Feature", "properties": { "store_id": 78, "name": "Starbucks" }, "geometry": { "type": "Point", "coordinates": [ 445711.538116103096399, 4644109.13707613106817 ] } },
{ "type": "Feature", "properties": { "store_id": 79, "name": "Starbucks" }, "geometry": { "type": "Point", "coordinates": [ 442900.529819481889717, 4651343.616930533200502 ] } },
{ "type": "Feature", "properties": { "store_id": 80, "name": "Starbucks" }, "geometry": { "type": "Point", "coordinates": [ 443688.126818792661652, 4638417.603263678960502 ] } },
{ "type": "Feature", "properties": { "store_id": 81, "name": "Starbucks" }, "geometry": { "type": "Point", "coordinates": [ 446050.740583829930983, 4636068.436211721971631 ] } },
{ "type": "Feature", "properties": { "store_id": 82, "name": "Starbucks" }, "geometry": { "type": "Point", "coordinates": [ 448170.400601478933822, 4636579.30370204243809 ] } },
{ "type": "Feature", "properties": { "store_id": 83, "name": "Starbucks" }, "geometry": { "type": "Point", "coordinates": [ 446863.742974078922998, 4636918.803125539794564 ] } },
{ "type": "Feature", "properties": { "store_id": 84, "name": "Starbucks" }, "geometry": { "type": "Point", "coordinates": [ 445805.873086845211219, 4640873.518271732144058 ] } },
{ "type": "Feature", "properties": { "store_id": 85, "name": "Starbucks" }, "geometry": { "type": "Point", "coordinates": [ 445607.164103630871978, 4645898.447359782643616 ] } },
{ "type": "Feature", "properties": { "store_id": 86, "name": "Starbucks" }, "geometry": { "type": "Point", "coordinates": [ 447548.952026189886965, 4636734.248458401300013 ] } },
{ "type": "Feature", "properties": { "store_id": 87, "name": "Starbucks" }, "geometry": { "type": "Point", "coordinates": [ 447668.537958244502079, 4637220.749393281526864 ] } },
{ "type": "Feature", "properties": { "store_id": 88, "name": "Starbucks" }, "geometry": { "type": "Point", "coordinates": [ 448163.74281490012072, 4637302.655687553808093 ] } },
{ "type": "Feature", "properties": { "store_id": 89, "name": "Starbucks" }, "geometry": { "type": "Point", "coordinates": [ 446297.578160673845559, 4634946.376804676838219 ] } },
{ "type": "Feature", "properties": { "store_id": 90, "name": "Starbucks" }, "geometry": { "type": "Point", "coordinates": [ 445284.473317192809191, 4647501.261614977382123 ] } },
{ "type": "Feature", "properties": { "store_id": 91, "name": "Starbucks" }, "geometry": { "type": "Point", "coordinates": [ 448059.838356826105155, 4637159.247356314212084 ] } },
{ "type": "Feature", "properties": { "store_id": 92, "name": "Starbucks" }, "geometry": { "type": "Point", "coordinates": [ 448248.547861450584605, 4637928.233188902027905 ] } },
{ "type": "Feature", "properties": { "store_id": 93, "name": "Starbucks" }, "geometry": { "type": "Point", "coordinates": [ 448020.045551528572105, 4637125.228480138815939 ] } },
{ "type": "Feature", "properties": { "store_id": 94, "name": "Starbucks" }, "geometry": { "type": "Point", "coordinates": [ 448209.181833338167053, 4637519.972403769381344 ] } },
{ "type": "Feature", "properties": { "store_id": 95, "name": "Starbucks" }, "geometry": { "type": "Point", "coordinates": [ 447823.980677187326364, 4637301.706608009524643 ] } },
{ "type": "Feature", "properties": { "store_id": 96, "name": "Starbucks" }, "geometry": { "type": "Point", "coordinates": [ 444457.764124897716101, 4642812.820038045756519 ] } },
{ "type": "Feature", "properties": { "store_id": 97, "name": "Starbucks" }, "geometry": { "type": "Point", "coordinates": [ 447833.024100543698296, 4637076.309318160638213 ] } },
{ "type": "Feature", "properties": { "store_id": 98, "name": "Starbucks" }, "geometry": { "type": "Point", "coordinates": [ 447351.883430699643213, 4639401.719413248822093 ] } },
{ "type": "Feature", "properties": { "store_id": 99, "name": "Starbucks" }, "geometry": { "type": "Point", "coordinates": [ 443443.535946143558249, 4642003.286958158016205 ] } },
{ "type": "Feature", "properties": { "store_id": 100, "name": "Starbucks" }, "geometry": { "type": "Point", "coordinates": [ 444377.721914353955071, 4643646.965812026523054 ] } },
{ "type": "Feature", "properties": { "store_id": 101, "name": "Starbucks" }, "geometry": { "type": "Point", "coordinates": [ 448325.350705665827263, 4638107.060687614604831 ] } },
{ "type": "Feature", "properties": { "store_id": 102, "name": "Starbucks" }, "geometry": { "type": "Point", "coordinates": [ 445666.066219887521584, 4636378.968171804212034 ] } },
{ "type": "Feature", "properties": { "store_id": 103, "name": "Starbucks" }, "geometry": { "type": "Point", "coordinates": [ 438186.826939312857576, 4647264.550920341163874 ] } },
{ "type": "Feature", "properties": { "store_id": 104, "name": "Starbucks" }, "geometry": { "type": "Point", "coordinates": [ 446812.45881829521386, 4638457.124513202346861 ] } },
{ "type": "Feature", "properties": { "store_id": 105, "name": "Starbucks" }, "geometry": { "type": "Point", "coordinates": [ 444149.556072931154631, 4651971.283295936882496 ] } },
{ "type": "Feature", "properties": { "store_id": 106, "name": "Starbucks" }, "geometry": { "type": "Point", "coordinates": [ 444530.880574924056418, 4644896.1164292357862 ] } },
{ "type": "Feature", "properties": { "store_id": 107, "name": "Starbucks" }, "geometry": { "type": "Point", "coordinates": [ 433434.483135357673746, 4640009.760748066939414 ] } },
{ "type": "Feature", "properties": { "store_id": 108, "name": "Starbucks" }, "geometry": { "type": "Point", "coordinates": [ 441651.40734998654807, 4632577.728884030133486 ] } },
{ "type": "Feature", "properties": { "store_id": 109, "name": "Starbucks" }, "geometry": { "type": "Point", "coordinates": [ 447421.920820805476978, 4637125.078997205011547 ] } },
{ "type": "Feature", "properties": { "store_id": 110, "name": "Starbucks" }, "geometry": { "type": "Point", "coordinates": [ 447641.153304278326686, 4636464.136594179086387 ] } },
{ "type": "Feature", "properties": { "store_id": 111, "name": "Starbucks" }, "geometry": { "type": "Point", "coordinates": [ 444463.508095527940895, 4636000.013992269523442 ] } },
{ "type": "Feature", "properties": { "store_id": 112, "name": "Starbucks" }, "geometry": { "type": "Point", "coordinates": [ 448839.646669126872439, 4633333.453876881860197 ] } },
{ "type": "Feature", "properties": { "store_id": 113, "name": "Starbucks" }, "geometry": { "type": "Point", "coordinates": [ 448571.341637985082343, 4633274.15012373123318 ] } }
]
}
